[{"id":"28054","name":"DMSP 5D-3 F16 (USA 172)","tle1":"1 28054U 03048A   26176.22990807 -.00000013  00000+0  16885-4 0  9999","tle2":"2 28054  98.9888 200.1114 0008050 120.0404 307.9135 14.14483490170626"},{"id":"28912","name":"METEOSAT-9 (MSG-2)","tle1":"1 28912U 05049B   26175.82105308  .00000124  00000+0  00000+0 0  9993","tle2":"2 28912   9.3787  54.0944 0001986 354.4974 205.6577  1.00276585  7074"},{"id":"29522","name":"DMSP 5D-3 F17 (USA 191)","tle1":"1 29522U 06050A   26176.30149307  .00000017  00000+0  31196-4 0  9991","tle2":"2 29522  98.7378 182.7056 0010853  38.2366 321.9576 14.14993797 13571"},{"id":"32958","name":"FENGYUN 3A","tle1":"1 32958U 08026A   26175.58906841  .00000050  00000+0  44440-4 0  9999","tle2":"2 32958  98.6884 116.2839 0009833 104.5207 255.7061 14.19572448936452"},{"id":"35491","name":"GOES 14","tle1":"1 35491U 09033A   26176.26693807 -.00000310  00000+0  00000+0 0  9993","tle2":"2 35491   1.7115  82.9560 0002205  17.4276  46.2449  1.00108842  6677"},{"id":"35951","name":"DMSP 5D-3 F18 (USA 210)","tle1":"1 35951U 09057A   26176.27340301  .00000251  00000+0  15285-3 0  9997","tle2":"2 35951  98.9040 157.0250 0010132 224.0405 135.9962 14.14901197860735"},{"id":"36411","name":"EWS-G2 (GOES 15)","tle1":"1 36411U 10008A   26176.01066831  .00000029  00000+0  00000+0 0  9990","tle2":"2 36411   1.2993  82.7471 0005214  42.2541 215.5751  1.00267909 59712"},{"id":"36744","name":"COMS 1","tle1":"1 36744U 10032A   26175.82053308  .00000074  00000+0  00000+0 0  9999","tle2":"2 36744   4.8248  75.2690 0011867  12.6634 163.4218  0.99165519 51169"},{"id":"37214","name":"FENGYUN 3B","tle1":"1 37214U 10059A   26176.30997591 -.00000359  00000+0 -16239-3 0  9999","tle2":"2 37214  98.9620 222.3592 0022377 160.9379 336.5199 14.14841140808576"},{"id":"37849","name":"SUOMI NPP","tle1":"1 37849U 11061A   26176.23497863  .00000063  00000+0  51113-4 0  9997","tle2":"2 37849  98.7954 117.0560 0001073 344.6382  15.4761 14.19518984759584"},{"id":"38552","name":"METEOSAT-10 (MSG-3)","tle1":"1 38552U 12035B   26175.95462669 -.00000001  00000+0  00000+0 0  9992","tle2":"2 38552   4.6902  60.9889 0001719   6.8463 189.1353  1.00268164 50936"},{"id":"38771","name":"METOP-B","tle1":"1 38771U 12049A   26176.28459484  .00000092  00000+0  61845-4 0  9996","tle2":"2 38771  98.6500 227.6222 0001727 356.4356   3.6809 14.21441366714413"},{"id":"39216","name":"INSAT-3D","tle1":"1 39216U 13038B   26176.26546472 -.00000331  00000+0  00000+0 0  9990","tle2":"2 39216   1.9473  82.4502 0001117 359.4135  56.6283  1.00272521 47166"},{"id":"39260","name":"FENGYUN 3C","tle1":"1 39260U 13052A   26176.24193420  .00000087  00000+0  65425-4 0  9998","tle2":"2 39260  98.4982 149.7470 0014779   5.1584 354.9740 14.15756752659707"},{"id":"40069","name":"METEOR-M 2","tle1":"1 40069U 14037A   26176.24045067  .00000157  00000+0  90853-4 0  9995","tle2":"2 40069  98.5116 151.6935 0006402  24.3480 335.7999 14.21463836620465"},{"id":"40267","name":"HIMAWARI-8","tle1":"1 40267U 14060A   26176.26763140 -.00000266  00000+0  00000+0 0  9994","tle2":"2 40267   0.0177 303.6376 0001521 152.5526  54.2149  1.00270976 42844"},{"id":"40367","name":"FENGYUN 2G","tle1":"1 40367U 14090A   26176.16919925 -.00000297  00000+0  00000+0 0  9995","tle2":"2 40367   5.6596  72.7239 0003592 151.5998 209.5585  1.00269529 42082"},{"id":"40732","name":"METEOSAT-11 (MSG-4)","tle1":"1 40732U 15034A   26176.17039400  .00000069  00000+0  00000+0 0  9998","tle2":"2 40732   3.2206  71.0589 0002283 347.1453 285.9137  1.00265566  7297"},{"id":"41105","name":"ELEKTRO-L 2","tle1":"1 41105U 15074A   26174.95372752 -.00000116  00000+0  00000+0 0  9995","tle2":"2 41105   6.7110  70.4435 0000765 277.7123 252.7626  1.00271133 38579"},{"id":"41335","name":"SENTINEL-3A","tle1":"1 41335U 16011A   26176.28150161  .00000091  00000+0  55776-4 0  9994","tle2":"2 41335  98.6246 243.5489 0001431  97.4312 262.7031 14.26734732539213"},{"id":"41752","name":"INSAT-3DR","tle1":"1 41752U 16054A   26176.06711404 -.00000068  00000+0  00000+0 0  9993","tle2":"2 41752   0.1261  86.2815 0010123 187.2212  97.8369  1.00272293 35894"},{"id":"41836","name":"HIMAWARI-9","tle1":"1 41836U 16064A   26176.26771807  .00000000  00000+0  00000+0 0  9997","tle2":"2 41836   0.0229  28.7375 0001208  85.3690  36.4471  1.00269310 35297"},{"id":"41866","name":"GOES 16","tle1":"1 41866U 16071A   26176.14776825 -.00000082  00000+0  00000+0 0  9991","tle2":"2 41866   0.3618  85.5326 0000527   2.1377 134.1199  1.00272015 35181"},{"id":"41882","name":"FENGYUN 4A","tle1":"1 41882U 16077A   26176.33552848 -.00000349  00000+0  00000+0 0  9999","tle2":"2 41882   2.3441  80.2031 0008252 152.3870 285.2960  1.00265121 35015"},{"id":"41884","name":"CYGFM05","tle1":"1 41884U 16078A   26175.48967430  .00021183  00000+0  28403-3 0  9993","tle2":"2 41884  34.9557 212.2226 0007938 219.2518 140.7631 15.56945562529895"},{"id":"41885","name":"CYGFM04","tle1":"1 41885U 16078B   26176.26833217  .00033557  00000+0  37129-3 0  9999","tle2":"2 41885  34.9305 174.3442 0007286 262.7959  97.1938 15.61918517530267"},{"id":"41886","name":"CYGFM02","tle1":"1 41886U 16078C   26176.25338001  .00040518  00000+0  39671-3 0  9999","tle2":"2 41886  34.9386 168.7415 0008276 264.7857  95.1925 15.64978425530433"},{"id":"41887","name":"CYGFM01","tle1":"1 41887U 16078D   26175.79563247  .00022072  00000+0  28822-3 0  9991","tle2":"2 41887  34.9388 211.1910 0007684 216.4243 143.5960 15.57646568529891"},{"id":"41888","name":"CYGFM08","tle1":"1 41888U 16078E   26176.25380578  .00030568  00000+0  35876-3 0  9994","tle2":"2 41888  34.9413 187.5165 0009113 248.6495 111.3258 15.60390578530238"},{"id":"41890","name":"CYGFM07","tle1":"1 41890U 16078G   26176.27642713  .00031030  00000+0  36294-3 0  9991","tle2":"2 41890  34.9428 175.7004 0007673 262.6123  97.3730 15.60492294530260"},{"id":"41891","name":"CYGFM03","tle1":"1 41891U 16078H   26176.24747049  .00031083  00000+0  36374-3 0  9994","tle2":"2 41891  34.9384 177.8280 0007325 251.1645 108.8286 15.60482791530239"}]